#aV2010  7 14  0  0   .00000000      96 DD+AD WGS84 FIT  NGA
## 1592 259200.00000000   900.00000000 55391  .0000000000000
+   31     1  2  3  4  5  6  7  8  9 10 11 12 13 14 15 16 17
+         18 19 20 21 22 23 24 26 27 28 29 30 31 32  0  0  0
+          0  0  0  0  0  0  0  0  0  0  0  0  0  0  0  0  0
+          0  0  0  0  0  0  0  0  0  0  0  0  0  0  0  0  0
+          0  0  0  0  0  0  0  0  0  0  0  0  0  0  0  0  0
++         0  0  0  0  0  0  0  0  0  0  0  0  0  0  0  0  0
++         0  0  0  0  0  0  0  0  0  0  0  0  0  0  0  0  0
++         0  0  0  0  0  0  0  0  0  0  0  0  0  0  0  0  0
++         0  0  0  0  0  0  0  0  0  0  0  0  0  0  0  0  0
++         0  0  0  0  0  0  0  0  0  0  0  0  0  0  0  0  0
%c cc cc ccc ccc cccc cccc cccc cccc ccccc ccccc ccccc ccccc
%c cc cc ccc ccc cccc cccc cccc cccc ccccc ccccc ccccc ccccc
%f  0.0000000  0.000000000  0.00000000000  0.000000000000000
%f  0.0000000  0.000000000  0.00000000000  0.000000000000000
%i    0    0    0    0      0      0      0      0         0
%i    0    0    0    0      0      0      0      0         0
/*      NGA, ST. LOUIS,MO.                                  
/*   EPHEMERIS COMPUTED FROM  3 DAYS OF DATA                
/* CCCCCCCCCCCCCCCCCCCCCCCCCCCCCCCCCCCCCCCCCCCCCCCCCCCCCCCCC
/* CCCCCCCCCCCCCCCCCCCCCCCCCCCCCCCCCCCCCCCCCCCCCCCCCCCCCCCCC
*  2010  7 14 11  0   .00000000                                                 
P  1 -20008.687893  -6390.834990 -16446.353817   -140.979906                    
V  1  19466.963022  -6961.679993 -20998.003629      -.040528                    
P  2  15017.637316   4577.881922 -21439.720674    272.729885                    
V  2  -6579.234015  26471.302377    583.680182       .030910                    
P  3 -22842.944948  -6783.771610  11705.545837    581.409726                    
V  3 -10208.695440 -11913.214068 -25654.269542       .051152                    
P  4   8830.651532  17522.660913 -17909.962930    124.642974                    
V  4  -7969.983218  21257.312286  17390.653213       .080347                    
P  5  25538.355958  -1535.141720  -7312.702509    -14.089264                    
V  5  -8239.635942   4983.966285 -29788.997150      -.031347                    
P  6 -22423.263369 -11333.130321   9035.594308    573.305656                    
V  6  -6212.195839  -9859.079537 -28176.385207      -.141025                    
P  7  -5791.075024  25756.526784   1801.860549     -1.701097                    
V  7  -3136.581338   1537.560964 -32007.554700      -.001083                    
P  8   1476.751042  22512.614943  13551.014055      6.107687                    
V  8  -7427.602701  15820.661622 -25968.238849       .001614                    
P  9  14286.055602 -15942.057541  15155.183967     18.210375                    
V  9  -3035.289032  20055.576584  23159.328376       .022028                    
P 10  19805.342817   7292.911947 -16513.882340    -46.970999                    
V 10 -19530.671264   6504.381175 -20439.549522      -.008529                    
P 11 -11150.844594  19896.953918  13046.685029    -75.545466                    
V 11  -3771.937669 -17469.990811  23315.778582      -.025012                    
P 12  21691.233167 -12024.634624  -9246.410896    -93.766887                    
V 12  12053.495691   -609.640913  29091.581713       .040112                    
P 13  -1166.837796  18115.196493 -19513.539591    301.734092                    
V 13 -16614.678148 -17906.451117 -15782.991995      -.006388                    
P 14 -15319.827314 -21356.022498   4463.334776     67.652186                    
V 14   5024.310603   2809.704707  31553.273916       .040958                    
P 15  18180.226415  -1506.894947  19361.136099   -239.964468                    
V 15  16699.944331  18023.537440 -14170.547852       .061702                    
P 16 -23790.310691  -2640.788910 -11778.399251    -89.544277                    
V 16  14063.218121  -5224.990544 -26879.185043      -.035839                    
P 17  13988.267536  21685.382224   6846.021565    161.778727                    
V 17  -7665.460759  -4448.545040  30016.020946       .019052                    
P 18   4905.110886 -16582.410620  20347.765675     80.728373                    
V 18  24995.354537  -4707.729463 -10385.425241       .023644                    
P 19 -17697.834964    790.813819  19911.854769    -49.577752                    
V 19 -15513.534116 -19806.689018 -12705.453118      -.029066                    
P 20 -20120.101006  13974.374158 -10331.703921     53.385188                    
V 20 -13348.112139    723.393194  27370.741378      -.004440                    
P 21   2884.143219 -25523.252169   5638.450002    -73.854488                    
V 21   5806.112314  -5512.187107 -30380.618837      -.026400                    
P 22  -8531.554779 -13987.609856  21086.356911    167.576423                    
V 22  25616.003191  -6721.758833   5855.990170      -.008770                    
P 23  -9797.739990  11500.415321 -21853.456431    363.041479                    
V 23 -19572.326285 -19589.101358  -1857.473245      -.015928                    
P 24 -10473.189118 -14194.193912  20023.446856    304.298704                    
V 24   8847.561225 -23614.929257 -11918.083096       .031542                    
P 26  19067.135614   4315.937129  17608.447651    -81.206625                    
V 26  14486.908911  18236.384572 -19153.734991      -.060907                    
P 27  15518.402644 -11096.226482  19082.446602    170.042675                    
V 27  -3725.454714  22564.784578  16930.360273       .035710                    
P 28   5518.995384  14301.248352  22185.444253    -10.624772                    
V 28 -26292.374208   6031.134084   2431.788766       .011557                    
P 29   1650.718709 -18040.454242 -19347.953202    134.444012                    
V 29  17826.503379  17212.519861 -14418.960719       .028256                    
P 30  11428.697548 -16616.335382 -17663.800861    260.433031                    
V 30  21177.487117  -4883.612903  18773.810219       .033296                    
P 31  -9357.433433 -15269.311292 -19350.408029    -24.601085                    
V 31   7788.818090 -23813.482263  15038.063462       .025734                    
P 32 -24906.929947   7375.523313  -4224.216973    -37.638142                    
V 32  -6297.185086  -2114.677527  31322.313562      -.086513                    
EOF
